[{"OBJECT_NAME":"STARLINK-1686","OBJECT_ID":"2020-062D","EPOCH":"2026-03-09T22:36:24.211296","MEAN_MOTION":15.70442116,"ECCENTRICITY":0.00055257,"INCLINATION":53.0437,"RA_OF_ASC_NODE":313.2055,"ARG_OF_PERICENTER":281.1531,"MEAN_ANOMALY":78.8864,"EPHEMERIS_TYPE":0,"CLASSIFICATION_TYPE":"U","NORAD_CAT_ID":46328,"ELEMENT_SET_NO":999,"REV_AT_EPOCH":30522,"BSTAR":0.00099254031,"MEAN_MOTION_DOT":0.0012535,"MEAN_MOTION_DDOT":0},{"OBJECT_NAME":"STARLINK-11742 [DTC]","OBJECT_ID":"2025-127H","EPOCH":"2026-03-09T06:25:29.444160","MEAN_MOTION":15.70883125,"ECCENTRICITY":0.00017571,"INCLINATION":43.0002,"RA_OF_ASC_NODE":87.2898,"ARG_OF_PERICENTER":209.2559,"MEAN_ANOMALY":150.821,"EPHEMERIS_TYPE":0,"CLASSIFICATION_TYPE":"U","NORAD_CAT_ID":64377,"ELEMENT_SET_NO":999,"REV_AT_EPOCH":4343,"BSTAR":0.0015040085,"MEAN_MOTION_DOT":0.0019755,"MEAN_MOTION_DDOT":0}]
